{
    "links": {
        "self": "http://www.neowsapp.com/rest/v1/neo/3408699?api_key=iIulBulltgU6a56xZRHN4H3l9WmuAYTsLGpBGhQ2"
    },
    "id": "3408699",
    "neo_reference_id": "3408699",
    "name": "(2008 GB21)",
    "designation": "2008 GB21",
    "nasa_jpl_url": "http://ssd.jpl.nasa.gov/sbdb.cgi?sstr=3408699",
    "absolute_magnitude_h": 25.9,
    "estimated_diameter": {
        "kilometers": {
            "estimated_diameter_min": 0.0175612318,
            "estimated_diameter_max": 0.0392681082
        },
        "meters": {
            "estimated_diameter_min": 17.561231848,
            "estimated_diameter_max": 39.2681081809
        },
        "miles": {
            "estimated_diameter_min": 0.0109120402,
            "estimated_diameter_max": 0.0244000636
        },
        "feet": {
            "estimated_diameter_min": 57.6155918963,
            "estimated_diameter_max": 128.8323800441
        }
    },
    "is_potentially_hazardous_asteroid": false,
    "close_approach_data": [
        {
            "close_approach_date": "1962-07-03",
            "close_approach_date_full": "1962-Jul-03 08:15",
            "epoch_date_close_approach": -236619900000,
            "relative_velocity": {
                "kilometers_per_second": "11.4265551961",
                "kilometers_per_hour": "41135.598706104",
                "miles_per_hour": "25560.0613182456"
            },
            "miss_distance": {
                "astronomical": "0.0617564331",
                "lunar": "24.0232524759",
                "kilometers": "9238630.850557497",
                "miles": "5740619.0144955786"
            },
            "orbiting_body": "Mars"
        },
        {
            "close_approach_date": "2008-04-07",
            "close_approach_date_full": "2008-Apr-07 17:21",
            "epoch_date_close_approach": 1207588860000,
            "relative_velocity": {
                "kilometers_per_second": "9.8806960094",
                "kilometers_per_hour": "35570.5056339371",
                "miles_per_hour": "22102.1289034872"
            },
            "miss_distance": {
                "astronomical": "0.0063079902",
                "lunar": "2.4538081878",
                "kilometers": "943661.897900874",
                "miles": "586364.3132811012"
            },
            "orbiting_body": "Moon"
        },
        {
            "close_approach_date": "2008-04-08",
            "close_approach_date_full": "2008-Apr-08 00:34",
            "epoch_date_close_approach": 1207614840000,
            "relative_velocity": {
                "kilometers_per_second": "9.9234965691",
                "kilometers_per_hour": "35724.587648655",
                "miles_per_hour": "22197.8694753545"
            },
            "miss_distance": {
                "astronomical": "0.0066225493",
                "lunar": "2.5761716777",
                "kilometers": "990719.269249991",
                "miles": "615604.4079562358"
            },
            "orbiting_body": "Earth"
        },
        {
            "close_approach_date": "2015-05-02",
            "close_approach_date_full": "2015-May-02 12:55",
            "epoch_date_close_approach": 1430571300000,
            "relative_velocity": {
                "kilometers_per_second": "20.3182955042",
                "kilometers_per_hour": "73145.8638149587",
                "miles_per_hour": "45449.9952132448"
            },
            "miss_distance": {
                "astronomical": "0.3572197087",
                "lunar": "138.9584666843",
                "kilometers": "53439307.543540469",
                "miles": "33205645.9412937122"
            },
            "orbiting_body": "Earth"
        }
    ],
    "orbital_data": {
        "orbit_id": "12",
        "orbit_determination_date": "2017-04-06 09:03:43",
        "first_observation_date": "2008-04-12",
        "last_observation_date": "2008-04-27",
        "data_arc_in_days": 15,
        "observations_used": 30,
        "orbit_uncertainty": "7",
        "minimum_orbit_intersection": ".00255388",
        "jupiter_tisserand_invariant": "4.528",
        "epoch_osculation": "2459000.5",
        "eccentricity": ".4141938149971682",
        "semi_major_axis": "1.459940825901601",
        "inclination": "1.501609026763377",
        "ascending_node_longitude": "192.2370146153746",
        "orbital_period": "644.3195470298099",
        "perihelion_distance": ".8552423655513001",
        "perihelion_argument": "305.762033461595",
        "aphelion_distance": "2.064639286251901",
        "perihelion_time": "2459029.689761522113",
        "mean_anomaly": "343.6908344680803",
        "mean_motion": ".5587289748689626",
        "equinox": "J2000",
        "orbit_class": {
            "orbit_class_type": "APO",
            "orbit_class_description": "Near-Earth asteroid orbits which cross the Earth’s orbit similar to that of 1862 Apollo",
            "orbit_class_range": "a (semi-major axis) > 1.0 AU; q (perihelion) < 1.017 AU"
        }
    },
    "is_sentry_object": false
}